CCSDS_OMM_VERS = 2.0
CREATION_DATE  = 
ORIGINATOR     = 

OBJECT_NAME    = COSMOS 2242
OBJECT_ID      = 1993-024A
CENTER_NAME    = EARTH
REF_FRAME      = TEME
TIME_SYSTEM    = UTC
MEAN_ELEMENT_THEORY = SGP/SGP4

EPOCH          = 2026-03-07T15:07:16.477248
MEAN_MOTION    = 14.96538689
ECCENTRICITY   = .00153019
INCLINATION    = 82.5153
RA_OF_ASC_NODE = 268.6869
ARG_OF_PERICENTER = 316.3213
MEAN_ANOMALY   = 43.6797

EPHEMERIS_TYPE = 0
CLASSIFICATION_TYPE = U
NORAD_CAT_ID   = 22626
ELEMENT_SET_NO = 999
REV_AT_EPOCH   = 78008
BSTAR          = .25192394E-3
MEAN_MOTION_DOT = .2895E-4
MEAN_MOTION_DDOT = 0

CCSDS_OMM_VERS = 2.0
CREATION_DATE  = 
ORIGINATOR     = 

OBJECT_NAME    = SL-16 R/B
OBJECT_ID      = 1993-059B
CENTER_NAME    = EARTH
REF_FRAME      = TEME
TIME_SYSTEM    = UTC
MEAN_ELEMENT_THEORY = SGP/SGP4

EPOCH          = 2026-03-07T06:55:59.632896
MEAN_MOTION    = 14.17232049
ECCENTRICITY   = .0018657
INCLINATION    = 70.9925
RA_OF_ASC_NODE = 16.1882
ARG_OF_PERICENTER = 220.0050
MEAN_ANOMALY   = 139.9700

EPHEMERIS_TYPE = 0
CLASSIFICATION_TYPE = U
NORAD_CAT_ID   = 22803
ELEMENT_SET_NO = 999
REV_AT_EPOCH   = 67919
BSTAR          = -.43581E-4
MEAN_MOTION_DOT = -.136E-5
MEAN_MOTION_DDOT = 0

CCSDS_OMM_VERS = 2.0
CREATION_DATE  = 
ORIGINATOR     = 

OBJECT_NAME    = ARIANE 40 R/B
OBJECT_ID      = 1993-061H
CENTER_NAME    = EARTH
REF_FRAME      = TEME
TIME_SYSTEM    = UTC
MEAN_ELEMENT_THEORY = SGP/SGP4

EPOCH          = 2026-03-07T14:29:16.113408
MEAN_MOTION    = 14.32859751
ECCENTRICITY   = .00095774
INCLINATION    = 98.4920
RA_OF_ASC_NODE = 135.5324
ARG_OF_PERICENTER = 292.0259
MEAN_ANOMALY   = 67.9908

EPHEMERIS_TYPE = 0
CLASSIFICATION_TYPE = U
NORAD_CAT_ID   = 22830
ELEMENT_SET_NO = 999
REV_AT_EPOCH   = 69380
BSTAR          = .11584038E-3
MEAN_MOTION_DOT = .273E-5
MEAN_MOTION_DDOT = 0

CCSDS_OMM_VERS = 2.0
CREATION_DATE  = 
ORIGINATOR     = 

OBJECT_NAME    = COSMOS 2278
OBJECT_ID      = 1994-023A
CENTER_NAME    = EARTH
REF_FRAME      = TEME
TIME_SYSTEM    = UTC
MEAN_ELEMENT_THEORY = SGP/SGP4

EPOCH          = 2026-03-07T14:49:07.826016
MEAN_MOTION    = 14.14378115
ECCENTRICITY   = .00078854
INCLINATION    = 71.0549
RA_OF_ASC_NODE = 179.4321
ARG_OF_PERICENTER = 17.3987
MEAN_ANOMALY   = 342.7404

EPHEMERIS_TYPE = 0
CLASSIFICATION_TYPE = U
NORAD_CAT_ID   = 23087
ELEMENT_SET_NO = 999
REV_AT_EPOCH   = 64451
BSTAR          = .13459547E-3
MEAN_MOTION_DOT = .211E-5
MEAN_MOTION_DDOT = 0

CCSDS_OMM_VERS = 2.0
CREATION_DATE  = 
ORIGINATOR     = 

OBJECT_NAME    = SL-16 R/B
OBJECT_ID      = 1994-023B
CENTER_NAME    = EARTH
REF_FRAME      = TEME
TIME_SYSTEM    = UTC
MEAN_ELEMENT_THEORY = SGP/SGP4

EPOCH          = 2026-03-07T10:51:59.106816
MEAN_MOTION    = 14.15012695
ECCENTRICITY   = .00057094
INCLINATION    = 70.9986
RA_OF_ASC_NODE = 75.5853
ARG_OF_PERICENTER = 287.8279
MEAN_ANOMALY   = 72.2221

EPHEMERIS_TYPE = 0
CLASSIFICATION_TYPE = U
NORAD_CAT_ID   = 23088
ELEMENT_SET_NO = 999
REV_AT_EPOCH   = 64577
BSTAR          = -.80168333E-4
MEAN_MOTION_DOT = -.203E-5
MEAN_MOTION_DDOT = 0

CCSDS_OMM_VERS = 2.0
CREATION_DATE  = 
ORIGINATOR     = 

OBJECT_NAME    = SL-16 R/B
OBJECT_ID      = 1994-074B
CENTER_NAME    = EARTH
REF_FRAME      = TEME
TIME_SYSTEM    = UTC
MEAN_ELEMENT_THEORY = SGP/SGP4

EPOCH          = 2026-03-07T15:19:58.013760
MEAN_MOTION    = 14.79405578
ECCENTRICITY   = .00056322
INCLINATION    = 97.7112
RA_OF_ASC_NODE = 97.5396
ARG_OF_PERICENTER = 218.2485
MEAN_ANOMALY   = 255.0878

EPHEMERIS_TYPE = 0
CLASSIFICATION_TYPE = U
NORAD_CAT_ID   = 23343
ELEMENT_SET_NO = 999
REV_AT_EPOCH   = 68694
BSTAR          = .10093736E-3
MEAN_MOTION_DOT = .704E-5
MEAN_MOTION_DDOT = 0

CCSDS_OMM_VERS = 2.0
CREATION_DATE  = 
ORIGINATOR     = 

OBJECT_NAME    = SL-16 R/B
OBJECT_ID      = 1994-077B
CENTER_NAME    = EARTH
REF_FRAME      = TEME
TIME_SYSTEM    = UTC
MEAN_ELEMENT_THEORY = SGP/SGP4

EPOCH          = 2026-03-07T05:21:30.534048
MEAN_MOTION    = 14.15561309
ECCENTRICITY   = .0003233
INCLINATION    = 70.9853
RA_OF_ASC_NODE = 357.6772
ARG_OF_PERICENTER = 215.5878
MEAN_ANOMALY   = 144.5029

EPHEMERIS_TYPE = 0
CLASSIFICATION_TYPE = U
NORAD_CAT_ID   = 23405
ELEMENT_SET_NO = 999
REV_AT_EPOCH   = 61588
BSTAR          = -.52722E-4
MEAN_MOTION_DOT = -.151E-5
MEAN_MOTION_DDOT = 0

CCSDS_OMM_VERS = 2.0
CREATION_DATE  = 
ORIGINATOR     = 

OBJECT_NAME    = ARIANE 40+ R/B
OBJECT_ID      = 1995-021B
CENTER_NAME    = EARTH
REF_FRAME      = TEME
TIME_SYSTEM    = UTC
MEAN_ELEMENT_THEORY = SGP/SGP4

EPOCH          = 2026-03-07T04:11:27.411648
MEAN_MOTION    = 14.39770077
ECCENTRICITY   = .00075407
INCLINATION    = 98.4502
RA_OF_ASC_NODE = 137.6914
ARG_OF_PERICENTER = 143.1923
MEAN_ANOMALY   = 270.9056

EPHEMERIS_TYPE = 0
CLASSIFICATION_TYPE = U
NORAD_CAT_ID   = 23561
ELEMENT_SET_NO = 999
REV_AT_EPOCH   = 61888
BSTAR          = .12380204E-3
MEAN_MOTION_DOT = .345E-5
MEAN_MOTION_DDOT = 0

CCSDS_OMM_VERS = 2.0
CREATION_DATE  = 
ORIGINATOR     = 

OBJECT_NAME    = SL-16 R/B
OBJECT_ID      = 1995-058B
CENTER_NAME    = EARTH
REF_FRAME      = TEME
TIME_SYSTEM    = UTC
MEAN_ELEMENT_THEORY = SGP/SGP4

EPOCH          = 2026-03-07T14:00:13.520448
MEAN_MOTION    = 14.15493957
ECCENTRICITY   = .00109008
INCLINATION    = 71.0216
RA_OF_ASC_NODE = 184.6764
ARG_OF_PERICENTER = 129.5950
MEAN_ANOMALY   = 230.6138

EPHEMERIS_TYPE = 0
CLASSIFICATION_TYPE = U
NORAD_CAT_ID   = 23705
ELEMENT_SET_NO = 999
REV_AT_EPOCH   = 56755
BSTAR          = .14417006E-3
MEAN_MOTION_DOT = .234E-5
MEAN_MOTION_DDOT = 0

CCSDS_OMM_VERS = 2.0
CREATION_DATE  = 
ORIGINATOR     = 

OBJECT_NAME    = SL-16 R/B
OBJECT_ID      = 1996-051B
CENTER_NAME    = EARTH
REF_FRAME      = TEME
TIME_SYSTEM    = UTC
MEAN_ELEMENT_THEORY = SGP/SGP4

EPOCH          = 2026-03-07T14:47:40.179264
MEAN_MOTION    = 14.12415067
ECCENTRICITY   = .00152604
INCLINATION    = 70.7601
RA_OF_ASC_NODE = 179.6266
ARG_OF_PERICENTER = 151.1639
MEAN_ANOMALY   = 209.0327

EPHEMERIS_TYPE = 0
CLASSIFICATION_TYPE = U
NORAD_CAT_ID   = 24298
ELEMENT_SET_NO = 999
REV_AT_EPOCH   = 52135
BSTAR          = .95366637E-4
MEAN_MOTION_DOT = .127E-5
MEAN_MOTION_DDOT = 0

CCSDS_OMM_VERS = 2.0
CREATION_DATE  = 
ORIGINATOR     = 

OBJECT_NAME    = ORBVIEW 2 (SEASTAR)
OBJECT_ID      = 1997-037A
CENTER_NAME    = EARTH
REF_FRAME      = TEME
TIME_SYSTEM    = UTC
MEAN_ELEMENT_THEORY = SGP/SGP4

EPOCH          = 2026-03-07T11:11:22.549344
MEAN_MOTION    = 14.35493287
ECCENTRICITY   = .00031332
INCLINATION    = 98.8563
RA_OF_ASC_NODE = 230.7191
ARG_OF_PERICENTER = 76.5194
MEAN_ANOMALY   = 283.6340

EPHEMERIS_TYPE = 0
CLASSIFICATION_TYPE = U
NORAD_CAT_ID   = 24883
ELEMENT_SET_NO = 999
REV_AT_EPOCH   = 50815
BSTAR          = .17824376E-3
MEAN_MOTION_DOT = .466E-5
MEAN_MOTION_DDOT = 0

CCSDS_OMM_VERS = 2.0
CREATION_DATE  = 
ORIGINATOR     = 

OBJECT_NAME    = SL-16 R/B
OBJECT_ID      = 1998-043G
CENTER_NAME    = EARTH
REF_FRAME      = TEME
TIME_SYSTEM    = UTC
MEAN_ELEMENT_THEORY = SGP/SGP4

EPOCH          = 2026-03-07T15:02:26.778048
MEAN_MOTION    = 14.26049175
ECCENTRICITY   = .0010323
INCLINATION    = 98.8251
RA_OF_ASC_NODE = 19.9756
ARG_OF_PERICENTER = 26.2358
MEAN_ANOMALY   = 333.9343

EPHEMERIS_TYPE = 0
CLASSIFICATION_TYPE = U
NORAD_CAT_ID   = 25400
ELEMENT_SET_NO = 999
REV_AT_EPOCH   = 43869
BSTAR          = .61875575E-4
MEAN_MOTION_DOT = .103E-5
MEAN_MOTION_DDOT = 0

